[{"OBJECT_NAME":"ONEWEB-0495","OBJECT_ID":"2022-138C","EPOCH":"2025-10-01T07:10:51.688704","MEAN_MOTION":13.19725801,"ECCENTRICITY":0.00013401,"INCLINATION":87.9272,"RA_OF_ASC_NODE":356.4713,"ARG_OF_PERICENTER":118.9467,"MEAN_ANOMALY":241.18,"EPHEMERIS_TYPE":0,"CLASSIFICATION_TYPE":"U","NORAD_CAT_ID":54115,"ELEMENT_SET_NO":999,"REV_AT_EPOCH":14267,"BSTAR":0.00013108825,"MEAN_MOTION_DOT":6.5e-7,"MEAN_MOTION_DDOT":0},{"OBJECT_NAME":"ONEWEB-0497","OBJECT_ID":"2022-138D","EPOCH":"2025-10-01T05:39:53.145792","MEAN_MOTION":13.19725977,"ECCENTRICITY":0.0001774,"INCLINATION":87.9287,"RA_OF_ASC_NODE":356.4628,"ARG_OF_PERICENTER":102.5726,"MEAN_ANOMALY":257.5605,"EPHEMERIS_TYPE":0,"CLASSIFICATION_TYPE":"U","NORAD_CAT_ID":54116,"ELEMENT_SET_NO":999,"REV_AT_EPOCH":14265,"BSTAR":0.00011717789,"MEAN_MOTION_DOT":6.0e-7,"MEAN_MOTION_DDOT":0},{"OBJECT_NAME":"ONEWEB-0499","OBJECT_ID":"2022-138E","EPOCH":"2025-10-01T07:04:13.632672","MEAN_MOTION":13.19667196,"ECCENTRICITY":0.00017446,"INCLINATION":87.9277,"RA_OF_ASC_NODE":356.4672,"ARG_OF_PERICENTER":96.8554,"MEAN_ANOMALY":263.2777,"EPHEMERIS_TYPE":0,"CLASSIFICATION_TYPE":"U","NORAD_CAT_ID":54117,"ELEMENT_SET_NO":999,"REV_AT_EPOCH":14267,"BSTAR":-0.019351621,"MEAN_MOTION_DOT":-7.721e-5,"MEAN_MOTION_DDOT":0},{"OBJECT_NAME":"ONEWEB-0500","OBJECT_ID":"2022-138F","EPOCH":"2025-10-01T07:08:35.783232","MEAN_MOTION":13.19726319,"ECCENTRICITY":0.00019131,"INCLINATION":87.9283,"RA_OF_ASC_NODE":356.4542,"ARG_OF_PERICENTER":101.2954,"MEAN_ANOMALY":258.8393,"EPHEMERIS_TYPE":0,"CLASSIFICATION_TYPE":"U","NORAD_CAT_ID":54118,"ELEMENT_SET_NO":999,"REV_AT_EPOCH":14268,"BSTAR":2.9246604e-5,"MEAN_MOTION_DOT":2.5e-7,"MEAN_MOTION_DDOT":0},{"OBJECT_NAME":"ONEWEB-0501","OBJECT_ID":"2022-138G","EPOCH":"2025-10-01T06:02:37.752576","MEAN_MOTION":13.19725935,"ECCENTRICITY":0.00014918,"INCLINATION":87.929,"RA_OF_ASC_NODE":356.4557,"ARG_OF_PERICENTER":107.2241,"MEAN_ANOMALY":252.9055,"EPHEMERIS_TYPE":0,"CLASSIFICATION_TYPE":"U","NORAD_CAT_ID":54119,"ELEMENT_SET_NO":999,"REV_AT_EPOCH":14265,"BSTAR":0.00019801208,"MEAN_MOTION_DOT":9.2e-7,"MEAN_MOTION_DDOT":0},{"OBJECT_NAME":"ONEWEB-0502","OBJECT_ID":"2022-138H","EPOCH":"2025-09-30T22:25:26.138784","MEAN_MOTION":13.19727187,"ECCENTRICITY":0.00015519,"INCLINATION":87.9287,"RA_OF_ASC_NODE":356.5015,"ARG_OF_PERICENTER":100.5071,"MEAN_ANOMALY":259.6237,"EPHEMERIS_TYPE":0,"CLASSIFICATION_TYPE":"U","NORAD_CAT_ID":54120,"ELEMENT_SET_NO":999,"REV_AT_EPOCH":14263,"BSTAR":0.00015553991,"MEAN_MOTION_DOT":7.5e-7,"MEAN_MOTION_DDOT":0},{"OBJECT_NAME":"ONEWEB-0503","OBJECT_ID":"2022-138J","EPOCH":"2025-10-01T07:15:24.103584","MEAN_MOTION":13.19726603,"ECCENTRICITY":0.0001787,"INCLINATION":87.9286,"RA_OF_ASC_NODE":356.4327,"ARG_OF_PERICENTER":90.9914,"MEAN_ANOMALY":269.1423,"EPHEMERIS_TYPE":0,"CLASSIFICATION_TYPE":"U","NORAD_CAT_ID":54121,"ELEMENT_SET_NO":999,"REV_AT_EPOCH":14267,"BSTAR":-3.9474639e-5,"MEAN_MOTION_DOT":-3.0e-8,"MEAN_MOTION_DDOT":0},{"OBJECT_NAME":"ONEWEB-0504","OBJECT_ID":"2022-138K","EPOCH":"2025-10-01T06:57:11.977344","MEAN_MOTION":13.19727056,"ECCENTRICITY":0.0001527,"INCLINATION":87.9289,"RA_OF_ASC_NODE":356.4523,"ARG_OF_PERICENTER":98.1694,"MEAN_ANOMALY":261.9612,"EPHEMERIS_TYPE":0,"CLASSIFICATION_TYPE":"U","NORAD_CAT_ID":54122,"ELEMENT_SET_NO":999,"REV_AT_EPOCH":14268,"BSTAR":-3.8698223e-5,"MEAN_MOTION_DOT":-3.0e-8,"MEAN_MOTION_DDOT":0},{"OBJECT_NAME":"ONEWEB-0505","OBJECT_ID":"2022-138L","EPOCH":"2025-09-30T23:35:58.219008","MEAN_MOTION":13.19725867,"ECCENTRICITY":0.00013369,"INCLINATION":87.9289,"RA_OF_ASC_NODE":356.5011,"ARG_OF_PERICENTER":108.8329,"MEAN_ANOMALY":251.2949,"EPHEMERIS_TYPE":0,"CLASSIFICATION_TYPE":"U","NORAD_CAT_ID":54123,"ELEMENT_SET_NO":999,"REV_AT_EPOCH":14262,"BSTAR":6.6538824e-5,"MEAN_MOTION_DOT":4.0e-7,"MEAN_MOTION_DDOT":0},{"OBJECT_NAME":"ONEWEB-0506","OBJECT_ID":"2022-138M","EPOCH":"2025-10-01T06:16:15.428352","MEAN_MOTION":13.19727192,"ECCENTRICITY":0.00016567,"INCLINATION":87.9288,"RA_OF_ASC_NODE":356.4432,"ARG_OF_PERICENTER":102.0103,"MEAN_ANOMALY":258.1215,"EPHEMERIS_TYPE":0,"CLASSIFICATION_TYPE":"U","NORAD_CAT_ID":54124,"ELEMENT_SET_NO":999,"REV_AT_EPOCH":14265,"BSTAR":0.00015076203,"MEAN_MOTION_DOT":7.3e-7,"MEAN_MOTION_DDOT":0},{"OBJECT_NAME":"ONEWEB-0507","OBJECT_ID":"2022-138N","EPOCH":"2025-10-01T04:56:39.233760","MEAN_MOTION":13.19726853,"ECCENTRICITY":0.00016822,"INCLINATION":87.9272,"RA_OF_ASC_NODE":356.502,"ARG_OF_PERICENTER":105.7531,"MEAN_ANOMALY":254.3787,"EPHEMERIS_TYPE":0,"CLASSIFICATION_TYPE":"U","NORAD_CAT_ID":54125,"ELEMENT_SET_NO":999,"REV_AT_EPOCH":14269,"BSTAR":8.7711979e-5,"MEAN_MOTION_DOT":4.8e-7,"MEAN_MOTION_DDOT":0},{"OBJECT_NAME":"ONEWEB-0508","OBJECT_ID":"2022-138P","EPOCH":"2025-09-30T17:57:02.263104","MEAN_MOTION":13.1972735,"ECCENTRICITY":0.0001558,"INCLINATION":87.9282,"RA_OF_ASC_NODE":356.5789,"ARG_OF_PERICENTER":110.0793,"MEAN_ANOMALY":250.0507,"EPHEMERIS_TYPE":0,"CLASSIFICATION_TYPE":"U","NORAD_CAT_ID":54126,"ELEMENT_SET_NO":999,"REV_AT_EPOCH":14261,"BSTAR":0.00024336806,"MEAN_MOTION_DOT":1.1e-6,"MEAN_MOTION_DDOT":0},{"OBJECT_NAME":"ONEWEB-0509","OBJECT_ID":"2022-138Q","EPOCH":"2025-10-01T06:04:54.413184","MEAN_MOTION":13.19727299,"ECCENTRICITY":0.00017232,"INCLINATION":87.9288,"RA_OF_ASC_NODE":356.4429,"ARG_OF_PERICENTER":102.2463,"MEAN_ANOMALY":257.8862,"EPHEMERIS_TYPE":0,"CLASSIFICATION_TYPE":"U","NORAD_CAT_ID":54127,"ELEMENT_SET_NO":999,"REV_AT_EPOCH":14265,"BSTAR":0.00027329529,"MEAN_MOTION_DOT":1.22e-6,"MEAN_MOTION_DDOT":0},{"OBJECT_NAME":"ONEWEB-0510","OBJECT_ID":"2022-138R","EPOCH":"2025-10-01T02:51:24.357024","MEAN_MOTION":13.20771753,"ECCENTRICITY":0.00024154,"INCLINATION":87.9242,"RA_OF_ASC_NODE":326.0989,"ARG_OF_PERICENTER":91.4591,"MEAN_ANOMALY":268.6819,"EPHEMERIS_TYPE":0,"CLASSIFICATION_TYPE":"U","NORAD_CAT_ID":54128,"ELEMENT_SET_NO":999,"REV_AT_EPOCH":14508,"BSTAR":0.00011656953,"MEAN_MOTION_DOT":6.0e-7,"MEAN_MOTION_DDOT":0},{"OBJECT_NAME":"ONEWEB-0511","OBJECT_ID":"2022-138S","EPOCH":"2025-10-01T06:00:19.802880","MEAN_MOTION":13.19728073,"ECCENTRICITY":0.00017161,"INCLINATION":87.9287,"RA_OF_ASC_NODE":356.4482,"ARG_OF_PERICENTER":91.733,"MEAN_ANOMALY":268.3999,"EPHEMERIS_TYPE":0,"CLASSIFICATION_TYPE":"U","NORAD_CAT_ID":54129,"ELEMENT_SET_NO":999,"REV_AT_EPOCH":14268,"BSTAR":0.00020890278,"MEAN_MOTION_DOT":9.7e-7,"MEAN_MOTION_DDOT":0},{"OBJECT_NAME":"ONEWEB-0512","OBJECT_ID":"2022-138T","EPOCH":"2025-10-01T05:48:59.008032","MEAN_MOTION":13.19730059,"ECCENTRICITY":0.00014128,"INCLINATION":87.9269,"RA_OF_ASC_NODE":356.4864,"ARG_OF_PERICENTER":102.4521,"MEAN_ANOMALY":257.677,"EPHEMERIS_TYPE":0,"CLASSIFICATION_TYPE":"U","NORAD_CAT_ID":54130,"ELEMENT_SET_NO":999,"REV_AT_EPOCH":14265,"BSTAR":0.00013787134,"MEAN_MOTION_DOT":6.8e-7,"MEAN_MOTION_DDOT":0},{"OBJECT_NAME":"ONEWEB-0513","OBJECT_ID":"2022-138U","EPOCH":"2025-10-01T06:43:42.548448","MEAN_MOTION":13.20315808,"ECCENTRICITY":0.00012992,"INCLINATION":87.9292,"RA_OF_ASC_NODE":356.4393,"ARG_OF_PERICENTER":88.833,"MEAN_ANOMALY":271.2952,"EPHEMERIS_TYPE":0,"CLASSIFICATION_TYPE":"U","NORAD_CAT_ID":54131,"ELEMENT_SET_NO":999,"REV_AT_EPOCH":14255,"BSTAR":6.348082e-5,"MEAN_MOTION_DOT":3.9e-7,"MEAN_MOTION_DDOT":0}]
