ONEWEB-0495             
1 54115U 22138C   25274.29920936  .00000065  00000+0  13109-3 0  9999
2 54115  87.9272 356.4713 0001340 118.9467 241.1800 13.19725801142679
ONEWEB-0497             
1 54116U 22138D   25274.23603178  .00000060  00000+0  11718-3 0  9999
2 54116  87.9287 356.4628 0001774 102.5726 257.5605 13.19725977142655
ONEWEB-0499             
1 54117U 22138E   25274.29460223 -.00007721  00000+0 -19352-1 0  9991
2 54117  87.9277 356.4672 0001744  96.8554 263.2777 13.19667196142679
ONEWEB-0500             
1 54118U 22138F   25274.29763638  .00000025  00000+0  29247-4 0  9993
2 54118  87.9283 356.4542 0001913 101.2954 258.8393 13.19726319142684
ONEWEB-0501             
1 54119U 22138G   25274.25182584  .00000092  00000+0  19801-3 0  9993
2 54119  87.9290 356.4557 0001491 107.2241 252.9055 13.19725935142655
ONEWEB-0502             
1 54120U 22138H   25273.93433031  .00000075  00000+0  15554-3 0  9997
2 54120  87.9287 356.5015 0001551 100.5071 259.6237 13.19727187142632
ONEWEB-0503             
1 54121U 22138J   25274.30236231 -.00000003  00000+0 -39475-4 0  9995
2 54121  87.9286 356.4327 0001787  90.9914 269.1423 13.19726603142675
ONEWEB-0504             
1 54122U 22138K   25274.28972196 -.00000003  00000+0 -38698-4 0  9996
2 54122  87.9289 356.4523 0001527  98.1694 261.9612 13.19727056142688
ONEWEB-0505             
1 54123U 22138L   25273.98331272  .00000040  00000+0  66539-4 0  9991
2 54123  87.9289 356.5011 0001336 108.8329 251.2949 13.19725867142621
ONEWEB-0506             
1 54124U 22138M   25274.26128968  .00000073  00000+0  15076-3 0  9995
2 54124  87.9288 356.4432 0001656 102.0103 258.1215 13.19727192142656
ONEWEB-0507             
1 54125U 22138N   25274.20600965  .00000048  00000+0  87712-4 0  9991
2 54125  87.9272 356.5020 0001682 105.7531 254.3787 13.19726853142697
ONEWEB-0508             
1 54126U 22138P   25273.74794286  .00000110  00000+0  24337-3 0  9993
2 54126  87.9282 356.5789 0001558 110.0793 250.0507 13.19727350142610
ONEWEB-0509             
1 54127U 22138Q   25274.25340756  .00000122  00000+0  27330-3 0  9999
2 54127  87.9288 356.4429 0001723 102.2463 257.8862 13.19727299142653
ONEWEB-0510             
1 54128U 22138R   25274.11903191  .00000060  00000+0  11657-3 0  9999
2 54128  87.9242 326.0989 0002415  91.4591 268.6819 13.20771753145086
ONEWEB-0511             
1 54129U 22138S   25274.25022920  .00000097  00000+0  20890-3 0  9996
2 54129  87.9287 356.4482 0001716  91.7330 268.3999 13.19728073142682
ONEWEB-0512             
1 54130U 22138T   25274.24234963  .00000068  00000+0  13787-3 0  9994
2 54130  87.9269 356.4864 0001412 102.4521 257.6770 13.19730059142655
ONEWEB-0513             
1 54131U 22138U   25274.28035357  .00000039  00000+0  63481-4 0  9990
2 54131  87.9292 356.4393 0001299  88.8330 271.2952 13.20315808142553
